{
  "type": "FeatureCollection",
  "features": [
    {
      "type": "Feature",
      "properties": {
        "name": "Mudumalai Tiger Reserve",
        "type": "National Park",
        "docking_station_id": "ds_01",
        "drones_count": 3
      },
      "geometry": {
        "type": "Polygon",
        "coordinates": [
          [
            [76.5, 11.5],
            [76.6, 11.5],
            [76.65, 11.6],
            [76.55, 11.65],
            [76.45, 11.6],
            [76.5, 11.5]
          ]
        ]
      }
    },
    {
      "type": "Feature",
      "properties": {
        "name": "Bandipur National Park",
        "type": "National Park",
        "docking_station_id": "ds_02",
        "drones_count": 5
      },
      "geometry": {
        "type": "Polygon",
        "coordinates": [
          [
            [76.6, 11.6],
            [76.7, 11.6],
            [76.75, 11.75],
            [76.6, 11.8],
            [76.5, 11.7],
            [76.6, 11.6]
          ]
        ]
      }
    },
    {
      "type": "Feature",
      "properties": {
        "name": "Mudumalai Forest Office",
        "type": "office",
        "station_id": "ds_01",
        "iconSize": [40, 40],
        "drones_available": 2,
        "drones_charging": 1,
        "active_drones": [
          {"id": "D-Alpha", "lat": 11.55, "lng": 76.52, "bat": 85, "alt": 120, "hotspots": 0},
          {"id": "D-Beta", "lat": 11.58, "lng": 76.55, "bat": 45, "alt": 150, "hotspots": 1}
        ]
      },
      "geometry": {
        "type": "Point",
        "coordinates": [76.55, 11.58]
      }
    },
    {
      "type": "Feature",
      "properties": {
        "name": "Bandipur Control Center",
        "type": "office",
        "station_id": "ds_02",
        "iconSize": [40, 40],
        "drones_available": 3,
        "drones_charging": 2,
        "active_drones": [
           {"id": "D-Gamma", "lat": 11.65, "lng": 76.65, "bat": 92, "alt": 130, "hotspots": 0}
        ]
      },
      "geometry": {
        "type": "Point",
        "coordinates": [76.62, 11.68]
      }
    }
  ]
}
